{"type": "FeatureCollection", "features": [ {"type": "Feature", "properties": {"norad_id": 40664, "name": "SKY MEXICO-1", "group": "intelsat", "lat": 0.0169900826903877, "lon": 173.14784583673045, "alt_km": 35788.51827709854, "timestamp": "2025-12-09T11:33:54.468399+00:00", "meta": {"OBJECT_NAME": "SKY MEXICO-1", "OBJECT_ID": "2015-026B", "EPOCH": "2025-12-09T03:29:27.712896", "MEAN_MOTION": 1.00270818, "ECCENTRICITY": 0.0002755, "INCLINATION": 0.0241, "RA_OF_ASC_NODE": 59.8469, "ARG_OF_PERICENTER": 213.987, "MEAN_ANOMALY": 137.9066, "EPHEMERIS_TYPE": 0, "CLASSIFICATION_TYPE": "U", "NORAD_CAT_ID": 40664, "ELEMENT_SET_NO": 999, "REV_AT_EPOCH": 3854, "BSTAR": 0, "MEAN_MOTION_DOT": -2.32e-06, "MEAN_MOTION_DDOT": 0}, "tle": {"line1": "1 40664U 15026B   25343.14545964 -.00000232  00000+0  00000+0 0  9995", "line2": "2 40664   0.0241  59.8469 0002755 213.9870 137.9066  1.00270818 38548"}}, "geometry": {"type": "Point", "coordinates": [173.14784583673045, 0.0169900826903877]}}, {"type": "Feature", "properties": {"norad_id": 40874, "name": "INTELSAT 34 (IS-34)", "group": "intelsat", "lat": -0.02514938480390458, "lon": -163.54603516928287, "alt_km": 35784.46893304062, "timestamp": "2025-12-09T11:33:54.468411+00:00", "meta": {"OBJECT_NAME": "INTELSAT 34 (IS-34)", "OBJECT_ID": "2015-039A", "EPOCH": "2025-12-09T04:28:45.517152", "MEAN_MOTION": 1.00269911, "ECCENTRICITY": 5.69e-05, "INCLINATION": 0.0141, "RA_OF_ASC_NODE": 304.9387, "ARG_OF_PERICENTER": 227.2016, "MEAN_ANOMALY": 277.7382, "EPHEMERIS_TYPE": 0, "CLASSIFICATION_TYPE": "U", "NORAD_CAT_ID": 40874, "ELEMENT_SET_NO": 999, "REV_AT_EPOCH": 3772, "BSTAR": 0, "MEAN_MOTION_DOT": -2.83e-06, "MEAN_MOTION_DDOT": 0}, "tle": {"line1": "1 40874U 15039A   25343.18663793 -.00000283  00000+0  00000+0 0  9993", "line2": "2 40874   0.0141 304.9387 0000569 227.2016 277.7382  1.00269911 37729"}}, "geometry": {"type": "Point", "coordinates": [-163.54603516928287, -0.02514938480390458]}}, {"type": "Feature", "properties": {"norad_id": 41581, "name": "INTELSAT 31 (IS-31)", "group": "intelsat", "lat": -0.013332580610299802, "lon": 156.85764369142703, "alt_km": 35783.272777487204, "timestamp": "2025-12-09T11:33:54.468423+00:00", "meta": {"OBJECT_NAME": "INTELSAT 31 (IS-31)", "OBJECT_ID": "2016-035A", "EPOCH": "2025-12-09T02:50:55.716288", "MEAN_MOTION": 1.00269221, "ECCENTRICITY": 0.0001876, "INCLINATION": 0.0183, "RA_OF_ASC_NODE": 271.2034, "ARG_OF_PERICENTER": 308.8041, "MEAN_ANOMALY": 165.7734, "EPHEMERIS_TYPE": 0, "CLASSIFICATION_TYPE": "U", "NORAD_CAT_ID": 41581, "ELEMENT_SET_NO": 999, "REV_AT_EPOCH": 3477, "BSTAR": 0, "MEAN_MOTION_DOT": -1.48e-06, "MEAN_MOTION_DDOT": 0}, "tle": {"line1": "1 41581U 16035A   25343.11870042 -.00000148  00000+0  00000+0 0  9996", "line2": "2 41581   0.0183 271.2034 0001876 308.8041 165.7734  1.00269221 34775"}}, "geometry": {"type": "Point", "coordinates": [156.85764369142703, -0.013332580610299802]}}, {"type": "Feature", "properties": {"norad_id": 41747, "name": "INTELSAT 36 (IS-36)", "group": "intelsat", "lat": -0.01640973212234451, "lon": -39.55987733735522, "alt_km": 35780.65102072338, "timestamp": "2025-12-09T11:33:54.468434+00:00", "meta": {"OBJECT_NAME": "INTELSAT 36 (IS-36)", "OBJECT_ID": "2016-053A", "EPOCH": "2025-12-09T03:37:36.247008", "MEAN_MOTION": 1.00269853, "ECCENTRICITY": 0.0001422, "INCLINATION": 0.0118, "RA_OF_ASC_NODE": 357.5426, "ARG_OF_PERICENTER": 318.485, "MEAN_ANOMALY": 245.015, "EPHEMERIS_TYPE": 0, "CLASSIFICATION_TYPE": "U", "NORAD_CAT_ID": 41747, "ELEMENT_SET_NO": 999, "REV_AT_EPOCH": 3404, "BSTAR": 0, "MEAN_MOTION_DOT": -2.2e-07, "MEAN_MOTION_DDOT": 0}, "tle": {"line1": "1 41747U 16053A   25343.15111397 -.00000022  00000+0  00000+0 0  9996", "line2": "2 41747   0.0118 357.5426 0001422 318.4850 245.0150  1.00269853 34047"}}, "geometry": {"type": "Point", "coordinates": [-39.55987733735522, -0.01640973212234451]}}, {"type": "Feature", "properties": {"norad_id": 41945, "name": "INTELSAT 32E (IS-32E)", "group": "intelsat", "lat": 0.0020029073874485307, "lon": -151.23231329101532, "alt_km": 35788.29652329778, "timestamp": "2025-12-09T11:33:54.468446+00:00", "meta": {"OBJECT_NAME": "INTELSAT 32E (IS-32E)", "OBJECT_ID": "2017-007B", "EPOCH": "2025-12-09T03:32:38.808096", "MEAN_MOTION": 1.00269383, "ECCENTRICITY": 4.33e-05, "INCLINATION": 0.0261, "RA_OF_ASC_NODE": 66.9481, "ARG_OF_PERICENTER": 287.6191, "MEAN_ANOMALY": 93.5649, "EPHEMERIS_TYPE": 0, "CLASSIFICATION_TYPE": "U", "NORAD_CAT_ID": 41945, "ELEMENT_SET_NO": 999, "REV_AT_EPOCH": 3232, "BSTAR": 0, "MEAN_MOTION_DOT": -2.67e-06, "MEAN_MOTION_DDOT": 0}, "tle": {"line1": "1 41945U 17007B   25343.14767139 -.00000267  00000+0  00000+0 0  9997", "line2": "2 41945   0.0261  66.9481 0000433 287.6191  93.5649  1.00269383 32320"}}, "geometry": {"type": "Point", "coordinates": [-151.23231329101532, 0.0020029073874485307]}}, {"type": "Feature", "properties": {"norad_id": 42818, "name": "INTELSAT 35E (IS-35E)", "group": "intelsat", "lat": -0.01462099816852856, "lon": -142.57652534421237, "alt_km": 35780.34205668183, "timestamp": "2025-12-09T11:33:54.468458+00:00", "meta": {"OBJECT_NAME": "INTELSAT 35E (IS-35E)", "OBJECT_ID": "2017-041A", "EPOCH": "2025-12-09T03:08:09.067200", "MEAN_MOTION": 1.00269564, "ECCENTRICITY": 0.0002298, "INCLINATION": 0.0022, "RA_OF_ASC_NODE": 6.2141, "ARG_OF_PERICENTER": 260.1671, "MEAN_ANOMALY": 184.2831, "EPHEMERIS_TYPE": 0, "CLASSIFICATION_TYPE": "U", "NORAD_CAT_ID": 42818, "ELEMENT_SET_NO": 999, "REV_AT_EPOCH": 3091, "BSTAR": 0, "MEAN_MOTION_DOT": -2.36e-06, "MEAN_MOTION_DDOT": 0}, "tle": {"line1": "1 42818U 17041A   25343.13066050 -.00000236  00000+0  00000+0 0  9994", "line2": "2 42818   0.0022   6.2141 0002298 260.1671 184.2831  1.00269564 30910"}}, "geometry": {"type": "Point", "coordinates": [-142.57652534421237, -0.01462099816852856]}}, {"type": "Feature", "properties": {"norad_id": 42950, "name": "INTELSAT 37E (IS-37E)", "group": "intelsat", "lat": -0.029910621795218268, "lon": -126.06842498327735, "alt_km": 35772.87586582038, "timestamp": "2025-12-09T11:33:54.468469+00:00", "meta": {"OBJECT_NAME": "INTELSAT 37E (IS-37E)", "OBJECT_ID": "2017-059A", "EPOCH": "2025-12-09T03:12:53.611776", "MEAN_MOTION": 1.00270721, "ECCENTRICITY": 0.0003393, "INCLINATION": 0.0168, "RA_OF_ASC_NODE": 6.5052, "ARG_OF_PERICENTER": 247.1332, "MEAN_ANOMALY": 214.7146, "EPHEMERIS_TYPE": 0, "CLASSIFICATION_TYPE": "U", "NORAD_CAT_ID": 42950, "ELEMENT_SET_NO": 999, "REV_AT_EPOCH": 3016, "BSTAR": 0, "MEAN_MOTION_DOT": -1.39e-06, "MEAN_MOTION_DDOT": 0}, "tle": {"line1": "1 42950U 17059A   25343.13395384 -.00000139  00000+0  00000+0 0  9997", "line2": "2 42950   0.0168   6.5052 0003393 247.1332 214.7146  1.00270721 30160"}}, "geometry": {"type": "Point", "coordinates": [-126.06842498327735, -0.029910621795218268]}}, {"type": "Feature", "properties": {"norad_id": 43632, "name": "AZERSPACE 2 (IS-38)", "group": "intelsat", "lat": -0.025829032387058137, "lon": -62.93549106628052, "alt_km": 35781.20808648516, "timestamp": "2025-12-09T11:33:54.468481+00:00", "meta": {"OBJECT_NAME": "AZERSPACE 2 (IS-38)", "OBJECT_ID": "2018-074A", "EPOCH": "2025-12-09T03:30:51.892416", "MEAN_MOTION": 1.00270269, "ECCENTRICITY": 0.000156, "INCLINATION": 0.0168, "RA_OF_ASC_NODE": 340.0792, "ARG_OF_PERICENTER": 279.7888, "MEAN_ANOMALY": 276.0995, "EPHEMERIS_TYPE": 0, "CLASSIFICATION_TYPE": "U", "NORAD_CAT_ID": 43632, "ELEMENT_SET_NO": 999, "REV_AT_EPOCH": 2654, "BSTAR": 0, "MEAN_MOTION_DOT": 1.39e-06, "MEAN_MOTION_DDOT": 0}, "tle": {"line1": "1 43632U 18074A   25343.14643394  .00000139  00000+0  00000+0 0  9990", "line2": "2 43632   0.0168 340.0792 0001560 279.7888 276.0995  1.00270269 26543"}}, "geometry": {"type": "Point", "coordinates": [-62.93549106628052, -0.025829032387058137]}}, {"type": "Feature", "properties": {"norad_id": 43633, "name": "HORIZONS-3E", "group": "intelsat", "lat": 0.0011760726852478556, "lon": 60.96545947504557, "alt_km": 35790.794928096715, "timestamp": "2025-12-09T11:33:54.468493+00:00", "meta": {"OBJECT_NAME": "HORIZONS-3E", "OBJECT_ID": "2018-074B", "EPOCH": "2025-12-09T03:34:38.599104", "MEAN_MOTION": 1.00269188, "ECCENTRICITY": 0.0001223, "INCLINATION": 0.0427, "RA_OF_ASC_NODE": 177.1186, "ARG_OF_PERICENTER": 103.4873, "MEAN_ANOMALY": 20.2129, "EPHEMERIS_TYPE": 0, "CLASSIFICATION_TYPE": "U", "NORAD_CAT_ID": 43633, "ELEMENT_SET_NO": 999, "REV_AT_EPOCH": 2643, "BSTAR": 0, "MEAN_MOTION_DOT": -2.9e-07, "MEAN_MOTION_DDOT": 0}, "tle": {"line1": "1 43633U 18074B   25343.14905786 -.00000029  00000+0  00000+0 0  9996", "line2": "2 43633   0.0427 177.1186 0001223 103.4873  20.2129  1.00269188 26435"}}, "geometry": {"type": "Point", "coordinates": [60.96545947504557, 0.0011760726852478556]}}, {"type": "Feature", "properties": {"norad_id": 44333, "name": "AT&T T-16", "group": "intelsat", "lat": 0.02340014964785776, "lon": 151.08735091385307, "alt_km": 35784.17705203265, "timestamp": "2025-12-09T11:33:54.468505+00:00", "meta": {"OBJECT_NAME": "AT&T T-16", "OBJECT_ID": "2019-034A", "EPOCH": "2025-12-09T04:51:28.033056", "MEAN_MOTION": 1.00269398, "ECCENTRICITY": 6.16e-05, "INCLINATION": 0.023, "RA_OF_ASC_NODE": 59.8704, "ARG_OF_PERICENTER": 96.056, "MEAN_ANOMALY": 254.2817, "EPHEMERIS_TYPE": 0, "CLASSIFICATION_TYPE": "U", "NORAD_CAT_ID": 44333, "ELEMENT_SET_NO": 999, "REV_AT_EPOCH": 2372, "BSTAR": 0, "MEAN_MOTION_DOT": -1.13e-06, "MEAN_MOTION_DDOT": 0}, "tle": {"line1": "1 44333U 19034A   25343.20240779 -.00000113  00000+0  00000+0 0  9996", "line2": "2 44333   0.0230  59.8704 0000616  96.0560 254.2817  1.00269398 23727"}}, "geometry": {"type": "Point", "coordinates": [151.08735091385307, 0.02340014964785776]}}]}